 2013  4 3 0655 25.7 R  19.278 -73.135 67.8  DOM  3 0.2 3.8CDOM                1
 GAP=170        0.55      13.6     6.1 23.9  0.7665E+02 -0.1175E+03 -0.3005E+03E
 ACTION:UP  15-05-31 00:33 OP:jrdn STATUS:               ID:20130403065525 L   I
 OLDACT:ARG 13-04-03 13:10 OP:isu  STATUS:               ID:20130403065400     3
 201304030655.mseed                                                            6
 STAT SP IPHASW D HRMM SECON CODA AMPLIT PERI AZIMU VELO AIN AR TRES W  DIS CAZ7
 LGNH BZ EP     C 065542.231   83                        121    0.2610  102 147 
 LGNH BN ES     C 065554.012                             121   -0.1510  102 147 
 SDDR BZ EP     C 065553.189   91                        106    0.0010  197  99 
 GTBY BZ EP     D 065555.588  120                        104   -0.2610  219 289 
 GTBY BE ES     C 065618.586                             104    0.1510  219 289 
                                                                                
 2013  415 0603 28.6 R  19.627 -72.873 78.8  SDD  3 0.0 3.6CSDD                1
 GAP=195        0.34      11.1     3.2 27.2  0.2423E+02 -0.5242E+02 -0.2947E+03E
 2013  415 0603 28.595  19.62710  -72.87305   78.764  0.004                    H
 ACTION:UP  13-04-15 14:18 OP:rp   STATUS:               ID:20130415060200     I
 OLDACT:ARG 13-04-15 14:00 OP:isu  STATUS:               ID:20130415060200     3
 201304150603.mseed                                                            6
 STAT SP IPHASW D HRMM SECON CODA AMPLIT PERI AZIMU VELO AIN AR TRES W  DIS CAZ7
 LGNH BZ EPg    D  6 348.291   88                        119    0.0110  127 167 
 LGNH BN ESg       6 4 3.243                             119   -0.0110  127 167 
 SDDR BZ EPg    C  6 354.631   61                        111    0.0010  181 113 
 GTBY BZ EPg    D  6 4 1.204   97                        106    0.0010  237 278 
                                                                                
 2013 1229 2226  0.0 L                                                         1
 ACTION:ARG 14-01-03 10:46 OP:isu  STATUS:               ID:20131229222600     I
 201312292227.mseed                                                            6
 STAT SP IPHASW D HRMM SECON CODA AMPLIT PERI AZIMU VELO AIN AR TRES W  DIS CAZ7
 PCDR BZ EP     D 222748.777   97                                               
 PCDR BE ES     D 222757.474                                                    
 AGPR BN ES     D 222812.825                                                    
 CRPR BZ EP     C 2228 0.079  110                                               
 AOPR BZ EP     C 2228 2.045   99                                               
 SMDR BE ES     C 222814.111                                                    
 CELP SZ EP     D 2228 5.819   94                                               
                                                                                
 2013  3 7 1816  0.0 L                       SDD                               1
 ACTION:UP  13-04-03 20:44 OP:rp   STATUS:               ID:20130307181600     I
 OLDACT:ARG 13-03-07 23:22 OP:isu  STATUS:               ID:20130307181600     3
 201303071816.mseed                                                            6
 STAT SP IPHASW D HRMM SECON CODA AMPLIT PERI AZIMU VELO AIN AR TRES W  DIS CAZ7
 HATO EZ EP     C 181644.054   47                                               
 PCDR BZ EP     C 181652.930   44                                               
 PCDR BE ES     C 1817 6.738                                                    
 HATO EZ ES     C 181653.588                                                    
 HATO EZ  IAML    181655.412         8.9 0.16                                   
 PCDR BE  IAML    1817 0.877        60.8 1.25                                   
                                                                                
 2013  228 0611  3.4 L  19.072 -69.004  0.0  SDD  3 1.6 1.0LSDD 2.8CSDD        1
 GAP=147        3.85      24.7    18.4 60.0 -0.1477E+02  0.3510E+03  0.9587E+03E
 2013  228 0611  3.425  19.07206  -69.00407    0.033  1.617                    H
 ACTION:UP  13-04-02 00:53 OP:NJM  STATUS:               ID:20130228061000     I
 OLDACT:ARG 13-02-28 12:44 OP:isu  STATUS:               ID:20130228061000     3
 201302280610.mseed                                                            6
 STAT SP IPHASW D HRMM SECON CODA AMPLIT PERI AZIMU VELO AIN AR TRES W  DIS CAZ7
 SMDR BZ EP     D  611 9.297   22                         46    0.4010 30.9 321 
 HATO EZ EP     D  611 9.395   81                         46   -2.6710 50.7 232 
 HATO EZ ES     C  61120.307                              46    1.6710 50.7 232 
 HATO EZ  IAML     61120.579        12.0 0.20                          50.7 232 
 AGPR BZ EP     C  61133.871   33                         35    0.6010  210 108 
                                                                                
 2013  4 8 0850 29.4 L  19.272 -69.576 46.2  SDD  3 0.2 3.2CSDD                1
 GAP=232        0.52       4.1     3.4  6.5  0.8260E+01  0.7527E+01  0.1516E+02E
 2013  4 8 0850 29.444  19.27200  -69.57577   46.193  0.171                    H
 ACTION:UP  13-04-15 16:42 OP:rp   STATUS:               ID:20130408085000     I
 OLDACT:ARG 13-04-08 12:48 OP:isu  STATUS:               ID:20130408085000     3
 201304080850.mseed                                                            6
 STAT SP IPHASW D HRMM SECON CODA AMPLIT PERI AZIMU VELO AIN AR TRES W  DIS CAZ7
 NADR HZ EP     C 085036.854   42                        144   -0.2310 30.8 287 
 NADR HZ ES     D 085042.946                             144    0.1310 30.8 287 
 HATO EZ EP     C 085039.830   91                        125    0.2310 57.4 159 
 HATO EZ ES     D 085047.076                             125   -0.1310 57.4 159 
 BANI EZ ES     C 0851 5.676                             103    0.00 9  147 237 
                                                                                
 2013  4 3 0655 25.8 R  19.291 -73.129 65.1  SDD  3 0.2 3.8CSDD                1
 GAP=171        0.51      14.2     6.4 26.6  0.8425E+02 -0.1369E+03 -0.3517E+03E
 2013  4 3 0655 25.834  19.29132  -73.12901   65.060  0.189                    H
 ACTION:UP  13-04-15 15:06 OP:rp   STATUS:               ID:20130403065400     I
 OLDACT:ARG 13-04-03 13:10 OP:isu  STATUS:               ID:20130403065400     3
 201304030655.mseed                                                            6
 STAT SP IPHASW D HRMM SECON CODA AMPLIT PERI AZIMU VELO AIN AR TRES W  DIS CAZ7
 LGNH BZ EP     C 065542.231   83                        119    0.2210  102 147 
 LGNH BN ES     C 065554.012                             119   -0.1310  102 147 
 SDDR BZ EP     C 065553.189   91                        105    0.00 9  197 100 
 GTBY BZ EP     D 065555.588  120                        104   -0.29 9  219 289 
 GTBY BE ES     C 065618.586                             104    0.17 9  219 289 
